[ {"name": "STARLINK-11741 [DTC]", "line1": "1 64064U 25107A   26154.60083625  .00350583  00000+0  26282-2 0  9998", "line2": "2 64064  43.0001 300.9291 0001801 274.4584  85.6078 15.70784098 60805"}, {"name": "STARLINK-11709 [DTC]", "line1": "1 64065U 25107B   26155.66050501  .00182392  00000+0  13972-2 0  9996", "line2": "2 64065  42.9995 294.2454 0001698 310.5343  49.5376 15.70783803 60972"}, {"name": "STARLINK-11737 [DTC]", "line1": "1 64066U 25107C   26156.08966294  .00216238  00000+0  16415-2 0  9991", "line2": "2 64066  42.9984 291.4284 0001621 276.1259  83.9424 15.70893547 61042"}, {"name": "STARLINK-11726 [DTC]", "line1": "1 64067U 25107D   26156.07904550  .00231626  00000+0  17561-2 0  9999", "line2": "2 64067  42.9988 291.3493 0001425 281.8471  78.2237 15.70876855 61041"}, {"name": "STARLINK-11700 [DTC]", "line1": "1 64068U 25107E   26155.86279756  .00188377  00000+0  14131-2 0  9993", "line2": "2 64068  42.9996 293.1849 0003488 335.1110  24.9589 15.71261159 61000"}, {"name": "STARLINK-11649 [DTC]", "line1": "1 64069U 25107F   26154.60613737  .00140463  00000+0  10779-2 0  9994", "line2": "2 64069  42.9999 300.9667 0002969 294.2803  65.7754 15.70877376 60803"}, {"name": "STARLINK-11713 [DTC]", "line1": "1 64070U 25107G   26156.10027924  .00206198  00000+0  15668-2 0  9990", "line2": "2 64070  42.9994 291.5165 0001921 293.8059  66.2607 15.70901556 61041"}, {"name": "STARLINK-11719 [DTC]", "line1": "1 64071U 25107H   26155.60754020  .00285554  00000+0  21017-2 0  9997", "line2": "2 64071  42.9986 294.7033 0003441 240.9833 119.0690 15.71414969 60961"}, {"name": "STARLINK-11733 [DTC]", "line1": "1 64072U 25107J   26156.08435625  .00135777  00000+0  10307-2 0  9999", "line2": "2 64072  42.9990 291.3845 0002598 302.6835  57.3782 15.71154561 61046"}, {"name": "STARLINK-11729 [DTC]", "line1": "1 64073U 25107K   26154.53193662  .00175707  00000+0  13434-2 0  9991", "line2": "2 64073  42.9980 301.2635 0001395 227.6527 132.4222 15.70851899 60794"}, {"name": "STARLINK-11730 [DTC]", "line1": "1 64074U 25107L   26153.56756470  .00009231  00000+0  75230-4 0  9998", "line2": "2 64074  43.0011 306.9298 0001866 271.0512  89.0142 15.70880500 60642"}, {"name": "STARLINK-11723 [DTC]", "line1": "1 64075U 25107M   26156.09497536  .00253103  00000+0  19148-2 0  9998", "line2": "2 64075  42.9984 291.4722 0001003 330.6948  29.3863 15.70861077 61048"}, {"name": "STARLINK-11715 [DTC]", "line1": "1 64076U 25107N   26156.07374052  .00236727  00000+0  17727-2 0  9998", "line2": "2 64076  42.9967 291.2979 0001828 322.4670  37.6070 15.71155172 61043"}, {"name": "STARLINK-34201", "line1": "1 64077U 25107P   26155.23819649  .00020668  00000+0  75815-3 0  9990", "line2": "2 64077  43.0031  73.0557 0000965 317.0738  43.0038 15.27594386 58262"}, {"name": "STARLINK-34190", "line1": "1 64078U 25107Q   26156.06252461  .00020805  00000+0  76186-3 0  9991", "line2": "2 64078  43.0043  68.0596 0001652 251.5960 108.4713 15.27647105 59485"}, {"name": "STARLINK-34168", "line1": "1 64079U 25107R   26156.04452906  .00033913  00000+0  12360-2 0  9993", "line2": "2 64079  42.9989  67.9196 0001338 256.6072 103.4631 15.27585510 59483"}, {"name": "STARLINK-34098", "line1": "1 64080U 25107S   26156.05224204  .00020055  00000+0  73605-3 0  9997", "line2": "2 64080  43.0002  67.9759 0001021 271.4902  88.5833 15.27591955 59481"}, {"name": "STARLINK-34180", "line1": "1 64081U 25107T   26155.61636765  .00025517  00000+0  93117-3 0  9996", "line2": "2 64081  43.0050  70.7282 0003459 251.0095 109.0382 15.27662254 59414"}, {"name": "STARLINK-34171", "line1": "1 64082U 25107U   26156.04067444  .00020591  00000+0  75549-3 0  9993", "line2": "2 64082  42.9994  67.8851 0000957 250.9276 109.1472 15.27589132 59489"}, {"name": "STARLINK-34126", "line1": "1 64083U 25107V   26154.97279457  .00028298  00000+0  10316-2 0  9995", "line2": "2 64083  43.0029  74.4995 0001334 242.0322 118.0395 15.27654279 58227"}, {"name": "STARLINK-34157", "line1": "1 64084U 25107W   26156.04967081  .00019467  00000+0  71477-3 0  9997", "line2": "2 64084  43.0003  67.9532 0001152 274.0924  85.9796 15.27593835 59469"}, {"name": "STARLINK-34140", "line1": "1 64085U 25107X   26152.93167884  .00020242  00000+0  74278-3 0  9990", "line2": "2 64085  42.9998  85.8323 0001313 205.9468 154.1318 15.27593623 58983"}, {"name": "STARLINK-34132", "line1": "1 64086U 25107Y   26152.22273395  .00020212  00000+0  74247-3 0  9991", "line2": "2 64086  43.0002  89.9814 0001211 274.1457  85.9257 15.27558942 58860"}, {"name": "STARLINK-34178", "line1": "1 64096U 25110A   26155.84745409  .00023940  00000+0  81809-3 0  9990", "line2": "2 64096  53.1622 342.1476 0002398  23.0742 337.0366 15.30187756 59222"}, {"name": "STARLINK-34174", "line1": "1 64097U 25110B   26155.74847223  .00042506  00000+0  12611-2 0  9990", "line2": "2 64097  53.1605 341.5307 0001042  96.7964 263.3158 15.34423012 59220"}, {"name": "STARLINK-34146", "line1": "1 64098U 25110C   26155.72322933  .00044696  00000+0  13284-2 0  9994", "line2": "2 64098  53.1604 341.3740 0002313   8.4313 351.6728 15.34344935 59218"}, {"name": "STARLINK-34074", "line1": "1 64099U 25110D   26155.98335676  .00030124  00000+0  10249-2 0  9990", "line2": "2 64099  53.1617 341.5756 0001605  39.1215 320.9901 15.30205989 59243"}, {"name": "STARLINK-34082", "line1": "1 64100U 25110E   26156.11186691  .00025266  00000+0  86307-3 0  9990", "line2": "2 64100  53.1622 340.9518 0001158  78.1697 281.9434 15.30170520 59262"}, {"name": "STARLINK-34072", "line1": "1 64101U 25110F   26155.73937028  .00023576  00000+0  76888-3 0  9991", "line2": "2 64101  53.1586 342.1541 0001058  70.8041 289.3075 15.31708651 59214"}, {"name": "STARLINK-34104", "line1": "1 64102U 25110G   26155.69806456  .00046045  00000+0  13625-2 0  9992", "line2": "2 64102  53.1608 341.9279 0001369  41.1920 318.9186 15.34470628 59212"}]