OBJECT_NAME,OBJECT_ID,EPOCH,MEAN_MOTION,ECCENTRICITY,INCLINATION,RA_OF_ASC_NODE,ARG_OF_PERICENTER,MEAN_ANOMALY,EPHEMERIS_TYPE,CLASSIFICATION_TYPE,NORAD_CAT_ID,ELEMENT_SET_NO,REV_AT_EPOCH,BSTAR,MEAN_MOTION_DOT,MEAN_MOTION_DDOT
STARLINK-11741 [DTC],2025-107A,2026-06-03T14:25:12.252000,15.70784098,.0001801,43.0001,300.9291,274.4584,85.6078,0,U,64064,999,6080,.26282E-2,.350583E-2,0
STARLINK-11709 [DTC],2025-107B,2026-06-04T15:51:07.632864,15.70783803,.00016982,42.9995,294.2454,310.5343,49.5376,0,U,64065,999,6097,.13972237E-2,.182392E-2,0
STARLINK-11737 [DTC],2025-107C,2026-06-05T02:09:06.878016,15.70893547,.0001621,42.9984,291.4284,276.1259,83.9424,0,U,64066,999,6104,.16415E-2,.216238E-2,0
STARLINK-11726 [DTC],2025-107D,2026-06-05T01:53:49.531200,15.70876855,.0001425,42.9988,291.3493,281.8471,78.2237,0,U,64067,999,6104,.17561E-2,.231626E-2,0
STARLINK-11700 [DTC],2025-107E,2026-06-04T20:42:25.709184,15.71261159,.0003488,42.9996,293.1849,335.1110,24.9589,0,U,64068,999,6100,.14131E-2,.188377E-2,0
STARLINK-11649 [DTC],2025-107F,2026-06-03T14:32:50.268768,15.70877376,.00029696,42.9999,300.9667,294.2803,65.7754,0,U,64069,999,6080,.10779359E-2,.140463E-2,0
STARLINK-11713 [DTC],2025-107G,2026-06-05T02:24:24.126336,15.70901556,.0001921,42.9994,291.5165,293.8059,66.2607,0,U,64070,999,6104,.15668E-2,.206198E-2,0
STARLINK-11719 [DTC],2025-107H,2026-06-04T14:34:51.473280,15.71414969,.00034418,42.9986,294.7033,240.9833,119.0690,0,U,64071,999,6096,.21017149E-2,.285554E-2,0
STARLINK-11733 [DTC],2025-107J,2026-06-05T02:01:28.380000,15.71154561,.0002598,42.9990,291.3845,302.6835,57.3782,0,U,64072,999,6104,.10307E-2,.135777E-2,0
STARLINK-11729 [DTC],2025-107K,2026-06-03T12:45:59.323968,15.70851899,.0001395,42.9980,301.2635,227.6527,132.4222,0,U,64073,999,6079,.13433971E-2,.175707E-2,0
STARLINK-11730 [DTC],2025-107L,2026-06-02T13:37:17.590080,15.70880500,.0001866,43.0011,306.9298,271.0512,89.0142,0,U,64074,999,6064,.7523E-4,.9231E-4,0
STARLINK-11723 [DTC],2025-107M,2026-06-05T02:16:45.871104,15.70861077,.0001003,42.9984,291.4722,330.6948,29.3863,0,U,64075,999,6104,.19148E-2,.253103E-2,0
STARLINK-11715 [DTC],2025-107N,2026-06-05T01:46:11.180928,15.71155172,.0001828,42.9967,291.2979,322.4670,37.6070,0,U,64076,999,6104,.17727E-2,.236727E-2,0
STARLINK-34201,2025-107P,2026-06-04T05:43:00.176736,15.27594386,.00009654,43.0031,73.0557,317.0738,43.0038,0,U,64077,999,5826,.75815185E-3,.20668E-3,0
STARLINK-34190,2025-107Q,2026-06-05T01:30:02.126304,15.27647105,.0001652,43.0043,68.0596,251.5960,108.4713,0,U,64078,999,5948,.76186E-3,.20805E-3,0
STARLINK-34168,2025-107R,2026-06-05T01:04:07.310784,15.27585510,.0001338,42.9989,67.9196,256.6072,103.4631,0,U,64079,999,5948,.1236E-2,.33913E-3,0
STARLINK-34098,2025-107S,2026-06-05T01:15:13.712256,15.27591955,.0001021,43.0002,67.9759,271.4902,88.5833,0,U,64080,999,5948,.73605E-3,.20055E-3,0
STARLINK-34180,2025-107T,2026-06-04T14:47:34.164960,15.27662254,.00034596,43.0050,70.7282,251.0095,109.0382,0,U,64081,999,5941,.93117388E-3,.25517E-3,0
STARLINK-34171,2025-107U,2026-06-05T00:58:34.271616,15.27589132,.0000957,42.9994,67.8851,250.9276,109.1472,0,U,64082,999,5948,.75549E-3,.20591E-3,0
STARLINK-34126,2025-107V,2026-06-03T23:20:49.450848,15.27654279,.00013341,43.0029,74.4995,242.0322,118.0395,0,U,64083,999,5822,.10315732E-2,.28298E-3,0
STARLINK-34157,2025-107W,2026-06-05T01:11:31.557984,15.27593835,.0001152,43.0003,67.9532,274.0924,85.9796,0,U,64084,999,5946,.71477E-3,.19467E-3,0
STARLINK-34140,2025-107X,2026-06-01T22:21:37.051776,15.27593623,.00013133,42.9998,85.8323,205.9468,154.1318,0,U,64085,999,5898,.74277996E-3,.20242E-3,0
STARLINK-34132,2025-107Y,2026-06-01T05:20:44.213280,15.27558942,.00012113,43.0002,89.9814,274.1457,85.9257,0,U,64086,999,5886,.742472E-3,.20212E-3,0
STARLINK-34178,2025-110A,2026-06-04T20:20:20.033376,15.30187756,.0002398,53.1622,342.1476,23.0742,337.0366,0,U,64096,999,5922,.81809E-3,.2394E-3,0
STARLINK-34174,2025-110B,2026-06-04T17:57:48.000672,15.34423012,.00010422,53.1605,341.5307,96.7964,263.3158,0,U,64097,999,5922,.12611466E-2,.42506E-3,0
STARLINK-34146,2025-110C,2026-06-04T17:21:27.014112,15.34344935,.0002313,53.1604,341.3740,8.4313,351.6728,0,U,64098,999,5921,.13284E-2,.44696E-3,0
STARLINK-34074,2025-110D,2026-06-04T23:36:02.024064,15.30205989,.0001605,53.1617,341.5756,39.1215,320.9901,0,U,64099,999,5924,.10249E-2,.30124E-3,0
STARLINK-34082,2025-110E,2026-06-05T02:41:05.301024,15.30170520,.0001158,53.1622,340.9518,78.1697,281.9434,0,U,64100,999,5926,.86307E-3,.25266E-3,0
STARLINK-34072,2025-110F,2026-06-04T17:44:41.592192,15.31708651,.0001058,53.1586,342.1541,70.8041,289.3075,0,U,64101,999,5921,.76888E-3,.23576E-3,0
STARLINK-34104,2025-110G,2026-06-04T16:45:12.777984,15.34470628,.0001369,53.1608,341.9279,41.1920,318.9186,0,U,64102,999,5921,.13625E-2,.46045E-3,0
